{
  "type": "FeatureCollection",
  "features": [
    {
      "type": "Feature",
      "properties": {
        "norad_id": 37781,
        "name": "HAIYANG-2A",
        "group": "resource",
        "lat": 49.159268074186926,
        "lon": 175.27918343671115,
        "alt_km": 962.5997307627149,
        "timestamp": "2025-12-09T07:41:32.859696+00:00",
        "meta_object_name": "HAIYANG-2A",
        "meta_object_id": "2011-043A",
        "meta_epoch": "2025-12-09T00:05:55.646592",
        "meta_mean_motion": 13.78833644,
        "meta_eccentricity": 0.00016442,
        "meta_inclination": 99.3373,
        "meta_ra_of_asc_node": 343.9956,
        "meta_arg_of_pericenter": 88.3436,
        "meta_mean_anomaly": 271.7904,
        "meta_ephemeris_type": 0,
        "meta_classification_type": "U",
        "meta_norad_cat_id": 37781,
        "meta_element_set_no": 999,
        "meta_rev_at_epoch": 72047,
        "meta_bstar": -0.00028180085,
        "meta_mean_motion_dot": -3.31e-06,
        "meta_mean_motion_ddot": 0,
        "tle_line1": "1 37781U 11043A   25343.00411628 -.00000331  00000+0 -28180-3 0  9994",
        "tle_line2": "2 37781  99.3373 343.9956 0001644  88.3436 271.7904 13.78833644720475"
      },
      "geometry": {
        "type": "Point",
        "coordinates": [
          175.27918343671115,
          49.159268074186926
        ]
      }
    },
    {
      "type": "Feature",
      "properties": {
        "norad_id": 37791,
        "name": "RASAT",
        "group": "resource",
        "lat": -51.4031326021182,
        "lon": -117.60395812526198,
        "alt_km": 688.9452469737453,
        "timestamp": "2025-12-09T07:41:32.859707+00:00",
        "meta_object_name": "RASAT",
        "meta_object_id": "2011-044D",
        "meta_epoch": "2025-12-08T22:59:10.192704",
        "meta_mean_motion": 14.67900283,
        "meta_eccentricity": 0.00219518,
        "meta_inclination": 98.0656,
        "meta_ra_of_asc_node": 72.2718,
        "meta_arg_of_pericenter": 76.2942,
        "meta_mean_anomaly": 39.807,
        "meta_ephemeris_type": 0,
        "meta_classification_type": "U",
        "meta_norad_cat_id": 37791,
        "meta_element_set_no": 999,
        "meta_rev_at_epoch": 76527,
        "meta_bstar": 0.00013565755,
        "meta_mean_motion_dot": 7.29e-06,
        "meta_mean_motion_ddot": 0,
        "tle_line1": "1 37791U 11044D   25342.95775686  .00000729  00000+0  13566-3 0  9997",
        "tle_line2": "2 37791  98.0656  72.2718 0021951  76.2942  39.8070 14.67900283765272"
      },
      "geometry": {
        "type": "Point",
        "coordinates": [
          -117.60395812526198,
          -51.4031326021182
        ]
      }
    },
    {
      "type": "Feature",
      "properties": {
        "norad_id": 37841,
        "name": "SRMSAT",
        "group": "resource",
        "lat": -16.7643616993968,
        "lon": 72.59949222308056,
        "alt_km": 846.237274490577,
        "timestamp": "2025-12-09T07:41:32.859718+00:00",
        "meta_object_name": "SRMSAT",
        "meta_object_id": "2011-058D",
        "meta_epoch": "2025-12-08T18:35:17.755584",
        "meta_mean_motion": 14.11509665,
        "meta_eccentricity": 0.00117062,
        "meta_inclination": 19.9702,
        "meta_ra_of_asc_node": 131.9502,
        "meta_arg_of_pericenter": 269.448,
        "meta_mean_anomaly": 132.3331,
        "meta_ephemeris_type": 0,
        "meta_classification_type": "U",
        "meta_norad_cat_id": 37841,
        "meta_element_set_no": 999,
        "meta_rev_at_epoch": 73088,
        "meta_bstar": 0.00016661288,
        "meta_mean_motion_dot": 5.72e-06,
        "meta_mean_motion_ddot": 0,
        "tle_line1": "1 37841U 11058D   25342.77451106  .00000572  00000+0  16661-3 0  9991",
        "tle_line2": "2 37841  19.9702 131.9502 0011706 269.4480 132.3331 14.11509665730882"
      },
      "geometry": {
        "type": "Point",
        "coordinates": [
          72.59949222308056,
          -16.7643616993968
        ]
      }
    },
    {
      "type": "Feature",
      "properties": {
        "norad_id": 38012,
        "name": "PLEIADES 1A",
        "group": "resource",
        "lat": 37.49681878753684,
        "lon": -117.52007109034197,
        "alt_km": 694.7907495797554,
        "timestamp": "2025-12-09T07:41:32.859729+00:00",
        "meta_object_name": "PLEIADES 1A",
        "meta_object_id": "2011-076F",
        "meta_epoch": "2025-12-08T23:17:37.935744",
        "meta_mean_motion": 14.5855523,
        "meta_eccentricity": 0.00013488,
        "meta_inclination": 98.1827,
        "meta_ra_of_asc_node": 55.7972,
        "meta_arg_of_pericenter": 73.2458,
        "meta_mean_anomaly": 32.318,
        "meta_ephemeris_type": 0,
        "meta_classification_type": "U",
        "meta_norad_cat_id": 38012,
        "meta_element_set_no": 999,
        "meta_rev_at_epoch": 74426,
        "meta_bstar": 0.00012537491,
        "meta_mean_motion_dot": 5.37e-06,
        "meta_mean_motion_ddot": 0,
        "tle_line1": "1 38012U 11076F   25342.97057796  .00000537  00000+0  12537-3 0  9990",
        "tle_line2": "2 38012  98.1827  55.7972 0001348  73.2458  32.3180 14.58555230744269"
      },
      "geometry": {
        "type": "Point",
        "coordinates": [
          -117.52007109034197,
          37.49681878753684
        ]
      }
    },
    {
      "type": "Feature",
      "properties": {
        "norad_id": 38038,
        "name": "ZIYUAN 1-02C (ZY 1-02C)",
        "group": "resource",
        "lat": -56.79137062661619,
        "lon": 62.49685987003721,
        "alt_km": 776.6821025322561,
        "timestamp": "2025-12-09T07:41:32.859740+00:00",
        "meta_object_name": "ZIYUAN 1-02C (ZY 1-02C)",
        "meta_object_id": "2011-079A",
        "meta_epoch": "2025-12-09T00:10:49.154304",
        "meta_mean_motion": 14.38005097,
        "meta_eccentricity": 0.00070032,
        "meta_inclination": 98.4336,
        "meta_ra_of_asc_node": 49.0899,
        "meta_arg_of_pericenter": 148.3262,
        "meta_mean_anomaly": 334.5078,
        "meta_ephemeris_type": 0,
        "meta_classification_type": "U",
        "meta_norad_cat_id": 38038,
        "meta_element_set_no": 999,
        "meta_rev_at_epoch": 73187,
        "meta_bstar": 0.00021421021,
        "meta_mean_motion_dot": 6.05e-06,
        "meta_mean_motion_ddot": 0,
        "tle_line1": "1 38038U 11079A   25343.00751336  .00000605  00000+0  21421-3 0  9995",
        "tle_line2": "2 38038  98.4336  49.0899 0007003 148.3262 334.5078 14.38005097731875"
      },
      "geometry": {
        "type": "Point",
        "coordinates": [
          62.49685987003721,
          -56.79137062661619
        ]
      }
    },
    {
      "type": "Feature",
      "properties": {
        "norad_id": 38046,
        "name": "ZIYUAN 3-1 (ZY 3-1)",
        "group": "resource",
        "lat": -61.75264401092361,
        "lon": 63.22085054903914,
        "alt_km": 371.697109117933,
        "timestamp": "2025-12-09T07:41:32.859750+00:00",
        "meta_object_name": "ZIYUAN 3-1 (ZY 3-1)",
        "meta_object_id": "2012-001A",
        "meta_epoch": "2025-12-08T22:46:06.225888",
        "meta_mean_motion": 15.67829744,
        "meta_eccentricity": 0.00019346,
        "meta_inclination": 97.1753,
        "meta_ra_of_asc_node": 49.279,
        "meta_arg_of_pericenter": 8.6778,
        "meta_mean_anomaly": 351.4516,
        "meta_ephemeris_type": 0,
        "meta_classification_type": "U",
        "meta_norad_cat_id": 38046,
        "meta_element_set_no": 999,
        "meta_rev_at_epoch": 77437,
        "meta_bstar": 0.00074480272,
        "meta_mean_motion_dot": 0.00082329,
        "meta_mean_motion_ddot": 0,
        "tle_line1": "1 38046U 12001A   25342.94868317  .00082329  00000+0  74480-3 0  9996",
        "tle_line2": "2 38046  97.1753  49.2790 0001934   8.6778 351.4516 15.67829744774375"
      },
      "geometry": {
        "type": "Point",
        "coordinates": [
          63.22085054903914,
          -61.75264401092361
        ]
      }
    },
    {
      "type": "Feature",
      "properties": {
        "norad_id": 38338,
        "name": "ARIRANG-3 (KOMPSAT-3)",
        "group": "resource",
        "lat": 0.48400581140885446,
        "lon": -62.18669470336182,
        "alt_km": 686.6776560647577,
        "timestamp": "2025-12-09T07:41:32.859761+00:00",
        "meta_object_name": "ARIRANG-3 (KOMPSAT-3)",
        "meta_object_id": "2012-025B",
        "meta_epoch": "2025-12-08T21:49:58.447200",
        "meta_mean_motion": 14.61705752,
        "meta_eccentricity": 0.00056291,
        "meta_inclination": 98.3316,
        "meta_ra_of_asc_node": 297.4704,
        "meta_arg_of_pericenter": 351.2992,
        "meta_mean_anomaly": 8.811,
        "meta_ephemeris_type": 0,
        "meta_classification_type": "U",
        "meta_norad_cat_id": 38338,
        "meta_element_set_no": 999,
        "meta_rev_at_epoch": 72354,
        "meta_bstar": 0.00025613075,
        "meta_mean_motion_dot": 1.228e-05,
        "meta_mean_motion_ddot": 0,
        "tle_line1": "1 38338U 12025B   25342.90970425  .00001228  00000+0  25613-3 0  9999",
        "tle_line2": "2 38338  98.3316 297.4704 0005629 351.2992   8.8110 14.61705752723540"
      },
      "geometry": {
        "type": "Point",
        "coordinates": [
          -62.18669470336182,
          0.48400581140885446
        ]
      }
    }
  ]
}